{"type": "FeatureCollection", "features": [ {"type": "Feature", "properties": {"norad_id": 40697, "name": "SENTINEL-2A", "group": "resource", "lat": 34.72678694316857, "lon": 57.45652166226341, "alt_km": 786.2190786443925, "timestamp": "2025-12-16T23:36:35.842122+00:00", "meta": {"OBJECT_NAME": "SENTINEL-2A", "OBJECT_ID": "2015-028A", "EPOCH": "2025-12-16T08:20:28.212000", "MEAN_MOTION": 14.30814406, "ECCENTRICITY": 0.00010495, "INCLINATION": 98.569, "RA_OF_ASC_NODE": 62.8284, "ARG_OF_PERICENTER": 88.7162, "MEAN_ANOMALY": 271.4141, "EPHEMERIS_TYPE": 0, "CLASSIFICATION_TYPE": "U", "NORAD_CAT_ID": 40697, "ELEMENT_SET_NO": 999, "REV_AT_EPOCH": 54758, "BSTAR": 1.5898545e-05, "MEAN_MOTION_DOT": -2e-08, "MEAN_MOTION_DDOT": 0}, "tle": {"line1": "1 40697U 15028A   25350.34754875 -.00000002  00000+0  15899-4 0  9998", "line2": "2 40697  98.5690  62.8284 0001049  88.7162 271.4141 14.30814406547581"}}, "geometry": {"type": "Point", "coordinates": [57.45652166226341, 34.72678694316857]}}, {"type": "Feature", "properties": {"norad_id": 40701, "name": "GAOFEN-8", "group": "resource", "lat": -71.8157894266906, "lon": -166.37735154616112, "alt_km": 465.0159569027528, "timestamp": "2025-12-16T23:36:35.842132+00:00", "meta": {"OBJECT_NAME": "GAOFEN-8", "OBJECT_ID": "2015-030A", "EPOCH": "2025-12-16T08:19:17.768352", "MEAN_MOTION": 15.38665586, "ECCENTRICITY": 0.00117968, "INCLINATION": 97.6907, "RA_OF_ASC_NODE": 168.6619, "ARG_OF_PERICENTER": 126.1233, "MEAN_ANOMALY": 234.1105, "EPHEMERIS_TYPE": 0, "CLASSIFICATION_TYPE": "U", "NORAD_CAT_ID": 40701, "ELEMENT_SET_NO": 999, "REV_AT_EPOCH": 58326, "BSTAR": 0.00028875659, "MEAN_MOTION_DOT": 0.00010969, "MEAN_MOTION_DDOT": 0}, "tle": {"line1": "1 40701U 15030A   25350.34673343  .00010969  00000+0  28876-3 0  9997", "line2": "2 40701  97.6907 168.6619 0011796 126.1233 234.1105 15.38665586583264"}}, "geometry": {"type": "Point", "coordinates": [-166.37735154616112, -71.8157894266906]}}, {"type": "Feature", "properties": {"norad_id": 40718, "name": "CARBONITE 1 (CBNT-1)", "group": "resource", "lat": 81.09703186851631, "lon": 112.87062017401901, "alt_km": 611.7277171938395, "timestamp": "2025-12-16T23:36:35.842142+00:00", "meta": {"OBJECT_NAME": "CARBONITE 1 (CBNT-1)", "OBJECT_ID": "2015-032D", "EPOCH": "2025-12-16T08:38:56.990112", "MEAN_MOTION": 14.82760365, "ECCENTRICITY": 0.00146526, "INCLINATION": 97.6401, "RA_OF_ASC_NODE": 171.2445, "ARG_OF_PERICENTER": 169.3198, "MEAN_ANOMALY": 190.833, "EPHEMERIS_TYPE": 0, "CLASSIFICATION_TYPE": "U", "NORAD_CAT_ID": 40718, "ELEMENT_SET_NO": 999, "REV_AT_EPOCH": 56224, "BSTAR": 6.1790231e-05, "MEAN_MOTION_DOT": 4.5e-06, "MEAN_MOTION_DDOT": 0}, "tle": {"line1": "1 40718U 15032D   25350.36038183  .00000450  00000+0  61790-4 0  9993", "line2": "2 40718  97.6401 171.2445 0014652 169.3198 190.8330 14.82760365562243"}}, "geometry": {"type": "Point", "coordinates": [112.87062017401901, 81.09703186851631]}}, {"type": "Feature", "properties": {"norad_id": 40878, "name": "YAOGAN-27", "group": "resource", "lat": 57.394933070929454, "lon": 176.5922047151092, "alt_km": 1199.4115171090125, "timestamp": "2025-12-16T23:36:35.842153+00:00", "meta": {"OBJECT_NAME": "YAOGAN-27", "OBJECT_ID": "2015-040A", "EPOCH": "2025-12-16T08:23:59.978400", "MEAN_MOTION": 13.16060392, "ECCENTRICITY": 0.00076093, "INCLINATION": 100.1009, "RA_OF_ASC_NODE": 339.8069, "ARG_OF_PERICENTER": 277.9781, "MEAN_ANOMALY": 82.0469, "EPHEMERIS_TYPE": 0, "CLASSIFICATION_TYPE": "U", "NORAD_CAT_ID": 40878, "ELEMENT_SET_NO": 999, "REV_AT_EPOCH": 49361, "BSTAR": 0.00061124144, "MEAN_MOTION_DOT": 1.9e-06, "MEAN_MOTION_DDOT": 0}, "tle": {"line1": "1 40878U 15040A   25350.34999975  .00000190  00000+0  61124-3 0  9993", "line2": "2 40878 100.1009 339.8069 0007609 277.9781  82.0469 13.16060392493614"}}, "geometry": {"type": "Point", "coordinates": [176.5922047151092, 57.394933070929454]}}, {"type": "Feature", "properties": {"norad_id": 40894, "name": "GAOFEN-9 01", "group": "resource", "lat": 1.1748351949165499, "lon": 29.59793286634008, "alt_km": 605.9592923595537, "timestamp": "2025-12-16T23:36:35.842163+00:00", "meta": {"OBJECT_NAME": "GAOFEN-9 01", "OBJECT_ID": "2015-047A", "EPOCH": "2025-12-16T07:24:18.511776", "MEAN_MOTION": 14.82431266, "ECCENTRICITY": 0.00281123, "INCLINATION": 97.6539, "RA_OF_ASC_NODE": 29.1099, "ARG_OF_PERICENTER": 22.8927, "MEAN_ANOMALY": 337.3534, "EPHEMERIS_TYPE": 0, "CLASSIFICATION_TYPE": "U", "NORAD_CAT_ID": 40894, "ELEMENT_SET_NO": 999, "REV_AT_EPOCH": 55309, "BSTAR": 0.00014551679, "MEAN_MOTION_DOT": 1.123e-05, "MEAN_MOTION_DDOT": 0}, "tle": {"line1": "1 40894U 15047A   25350.30854759  .00001123  00000+0  14552-3 0  9994", "line2": "2 40894  97.6539  29.1099 0028112  22.8927 337.3534 14.82431266553097"}}, "geometry": {"type": "Point", "coordinates": [29.59793286634008, 1.1748351949165499]}}, {"type": "Feature", "properties": {"norad_id": 41026, "name": "YAOGAN-28", "group": "resource", "lat": 71.32713679748636, "lon": 106.42863912013452, "alt_km": 479.0038025813028, "timestamp": "2025-12-16T23:36:35.842173+00:00", "meta": {"OBJECT_NAME": "YAOGAN-28", "OBJECT_ID": "2015-064A", "EPOCH": "2025-12-16T09:06:49.252608", "MEAN_MOTION": 15.24416287, "ECCENTRICITY": 0.0012519, "INCLINATION": 97.2802, "RA_OF_ASC_NODE": 128.069, "ARG_OF_PERICENTER": 114.3221, "MEAN_ANOMALY": 245.9325, "EPHEMERIS_TYPE": 0, "CLASSIFICATION_TYPE": "U", "NORAD_CAT_ID": 41026, "ELEMENT_SET_NO": 999, "REV_AT_EPOCH": 56280, "BSTAR": 0.00025667984, "MEAN_MOTION_DOT": 6.238e-05, "MEAN_MOTION_DDOT": 0}, "tle": {"line1": "1 41026U 15064A   25350.37973672  .00006238  00000+0  25668-3 0  9996", "line2": "2 41026  97.2802 128.0690 0012519 114.3221 245.9325 15.24416287562802"}}, "geometry": {"type": "Point", "coordinates": [106.42863912013452, 71.32713679748636]}}, {"type": "Feature", "properties": {"norad_id": 41038, "name": "YAOGAN-29", "group": "resource", "lat": -74.23245848240511, "lon": 164.20400484083794, "alt_km": 627.46932909932, "timestamp": "2025-12-16T23:36:35.842184+00:00", "meta": {"OBJECT_NAME": "YAOGAN-29", "OBJECT_ID": "2015-069A", "EPOCH": "2025-12-16T07:52:56.130816", "MEAN_MOTION": 14.82886718, "ECCENTRICITY": 1.889e-05, "INCLINATION": 98.0223, "RA_OF_ASC_NODE": 13.5121, "ARG_OF_PERICENTER": 201.7531, "MEAN_ANOMALY": 158.3674, "EPHEMERIS_TYPE": 0, "CLASSIFICATION_TYPE": "U", "NORAD_CAT_ID": 41038, "ELEMENT_SET_NO": 999, "REV_AT_EPOCH": 54352, "BSTAR": 2.5498115e-05, "MEAN_MOTION_DOT": 1.53e-06, "MEAN_MOTION_DDOT": 0}, "tle": {"line1": "1 41038U 15069A   25350.32842744  .00000153  00000+0  25498-4 0  9996", "line2": "2 41038  98.0223  13.5121 0000188 201.7531 158.3674 14.82886718543527"}}, "geometry": {"type": "Point", "coordinates": [164.20400484083794, -74.23245848240511]}}, {"type": "Feature", "properties": {"norad_id": 41167, "name": "KENT RIDGE 1", "group": "resource", "lat": 14.904112400867096, "lon": -95.7709229113646, "alt_km": 497.5264949917255, "timestamp": "2025-12-16T23:36:35.842194+00:00", "meta": {"OBJECT_NAME": "KENT RIDGE 1", "OBJECT_ID": "2015-077B", "EPOCH": "2025-12-16T04:21:40.220064", "MEAN_MOTION": 15.21665252, "ECCENTRICITY": 0.00084925, "INCLINATION": 14.9782, "RA_OF_ASC_NODE": 185.6007, "ARG_OF_PERICENTER": 179.6251, "MEAN_ANOMALY": 180.4078, "EPHEMERIS_TYPE": 0, "CLASSIFICATION_TYPE": "U", "NORAD_CAT_ID": 41167, "ELEMENT_SET_NO": 999, "REV_AT_EPOCH": 55316, "BSTAR": 0.00013603568, "MEAN_MOTION_DOT": 3.923e-05, "MEAN_MOTION_DDOT": 0}, "tle": {"line1": "1 41167U 15077B   25350.18171551  .00003923  00000+0  13604-3 0  9996", "line2": "2 41167  14.9782 185.6007 0008492 179.6251 180.4078 15.21665252553166"}}, "geometry": {"type": "Point", "coordinates": [-95.7709229113646, 14.904112400867096]}}, {"type": "Feature", "properties": {"norad_id": 41194, "name": "GAOFEN-4", "group": "resource", "lat": 0.16264080253092644, "lon": -174.30122693913316, "alt_km": 35773.37384148267, "timestamp": "2025-12-16T23:36:35.842206+00:00", "meta": {"OBJECT_NAME": "GAOFEN-4", "OBJECT_ID": "2015-083A", "EPOCH": "2025-12-16T08:43:26.978880", "MEAN_MOTION": 1.00273836, "ECCENTRICITY": 0.00029274, "INCLINATION": 0.1795, "RA_OF_ASC_NODE": 81.6086, "ARG_OF_PERICENTER": 97.3514, "MEAN_ANOMALY": 142.8439, "EPHEMERIS_TYPE": 0, "CLASSIFICATION_TYPE": "U", "NORAD_CAT_ID": 41194, "ELEMENT_SET_NO": 999, "REV_AT_EPOCH": 3669, "BSTAR": 0, "MEAN_MOTION_DOT": -3.12e-06, "MEAN_MOTION_DDOT": 0}, "tle": {"line1": "1 41194U 15083A   25350.36350670 -.00000312  00000+0  00000+0 0  9996", "line2": "2 41194   0.1795  81.6086 0002927  97.3514 142.8439  1.00273836 36696"}}, "geometry": {"type": "Point", "coordinates": [-174.30122693913316, 0.16264080253092644]}}, {"type": "Feature", "properties": {"norad_id": 41240, "name": "JASON-3", "group": "resource", "lat": -2.2536076936959075, "lon": -30.095563363646562, "alt_km": 1312.9998226087464, "timestamp": "2025-12-16T23:36:35.842218+00:00", "meta": {"OBJECT_NAME": "JASON-3", "OBJECT_ID": "2016-002A", "EPOCH": "2025-12-16T07:45:09.812736", "MEAN_MOTION": 12.8762674, "ECCENTRICITY": 0.00071722, "INCLINATION": 66.0394, "RA_OF_ASC_NODE": 150.2906, "ARG_OF_PERICENTER": 271.0111, "MEAN_ANOMALY": 89.0086, "EPHEMERIS_TYPE": 0, "CLASSIFICATION_TYPE": "U", "NORAD_CAT_ID": 41240, "ELEMENT_SET_NO": 999, "REV_AT_EPOCH": 46370, "BSTAR": 0.00012343072, "MEAN_MOTION_DOT": -3.1e-07, "MEAN_MOTION_DDOT": 0}, "tle": {"line1": "1 41240U 16002A   25350.32303024 -.00000031  00000+0  12343-3 0  9992", "line2": "2 41240  66.0394 150.2906 0007172 271.0111  89.0086 12.87626740463708"}}, "geometry": {"type": "Point", "coordinates": [-30.095563363646562, -2.2536076936959075]}}]}